NORAD_CAT_ID,OBJECT_NAME,OBJECT_TYPE,EPOCH,MEAN_MOTION,ECCENTRICITY,INCLINATION,RA_OF_ASC_NODE,ARG_OF_PERICENTER,MEAN_ANOMALY,BSTAR,MEAN_MOTION_DOT,MEAN_MOTION_DDOT,TLE_LINE0,TLE_LINE1,TLE_LINE2,SEMIMAJOR_AXIS,PERIOD,APOGEE,PERIGEE,DECAYED
53737.0,STARLINK-4646,PAYLOAD,2023-01-28 06:18:20,15.08844783,0.0001075999999999,53.2185,325.5883,82.1314,277.98,0.00031747,4.769e-05,0.0,0 STARLINK-4646,1 53737U 22107AP  23028.26274197  .00004769  00000-0  31747-3 0  9991,2 53737  53.2185 325.5883 0001076  82.1314 277.9800 15.08844783 22250,6917.866,95.437,540.475,538.986,0.0
53737.0,STARLINK-4646,PAYLOAD,2023-01-29 04:33:44,15.08845656,0.0001076,53.2182,321.4236,74.5256,285.5855,0.00019713,2.851e-05,0.0,0 STARLINK-4646,1 53737U 22107AP  23029.19010394  .00002851  00000-0  19713-3 0  9990,2 53737  53.2182 321.4236 0001076  74.5256 285.5855 15.08845656 22394,6917.863,95.437,540.472,538.984,0.0
53737.0,STARLINK-4646,PAYLOAD,2023-01-30 04:24:31,15.08848779,9.02e-05,53.2174,316.9648,86.5939,273.5156,0.00021156,3.082e-05,0.0,0 STARLINK-4646,1 53737U 22107AP  23030.18370107  .00003082  00000-0  21156-3 0  9993,2 53737  53.2174 316.9648 0000902  86.5939 273.5156 15.08848779 23323,6917.854,95.437,540.343,539.095,0.0
53737.0,STARLINK-4646,PAYLOAD,2023-01-31 04:15:18,15.08855467,0.0001069,53.2183,312.5042,81.0899,279.0214,0.000241,3.551e-05,0.0,0 STARLINK-4646,1 53737U 22107AP  23031.17729658  .00003551  00000-0  24100-3 0  9995,2 53737  53.2183 312.5042 0001069  81.0899 279.0214 15.08855467 22690,6917.833,95.437,540.438,538.959,0.0
53737.0,STARLINK-4646,PAYLOAD,2023-01-31 13:47:37,15.08842957,8.07e-05,53.2191,310.7226,71.9081,288.1999,5.3263e-05,5.6e-06,0.0,0 STARLINK-4646,1 53737U 22107AP  23031.57474069  .00000560  00000-0  53263-4 0  9992,2 53737  53.2191 310.7226 0000807  71.9081 288.1999 15.08842957 22751,6917.871,95.437,540.295,539.178,0.0
53737.0,STARLINK-4646,PAYLOAD,2023-01-31 20:09:10,15.08844036,9.77e-05,53.2183,309.5339,71.4454,288.6644,-2.9072e-06,-3.34e-06,0.0,0 STARLINK-4646,1 53737U 22107AP  23031.83970144 -.00000334  00000-0 -29072-5 0  9999,2 53737  53.2183 309.5339 0000977  71.4454 288.6644 15.08844036 23573,6917.868,95.437,540.409,539.057,0.0
53737.0,STARLINK-4646,PAYLOAD,2023-02-01 04:06:05,15.088619,0.0001239,53.2173,308.0448,72.2391,287.8736,0.00038314,5.819e-05,0.0,0 STARLINK-4646,1 53737U 22107AP  23032.17089184  .00005819  00000-0  38314-3 0  9990,2 53737  53.2173 308.0448 0001239  72.2391 287.8736 15.08861900 22849,6917.813,95.436,540.536,538.821,0.0
53737.0,STARLINK-4646,PAYLOAD,2023-02-01 13:38:24,15.08845959,0.0001048,53.2172,306.2604,101.5711,258.5398,7.2635e-05,8.69e-06,0.0,0 STARLINK-4646,1 53737U 22107AP  23032.56833527  .00000869  00000-0  72635-4 0  9996,2 53737  53.2172 306.2604 0001048 101.5711 258.5398 15.08845959 23680,6917.862,95.437,540.452,539.002,0.0
53737.0,STARLINK-4646,PAYLOAD,2023-02-01 19:59:57,15.08824921,0.0001004,53.218,305.0727,97.8199,262.2907,-0.00039282,-6.531e-05,0.0,0 STARLINK-4646,1 53737U 22107AP  23032.83330424 -.00006531  00000-0 -39282-3 0  9998,2 53737  53.2180 305.0727 0001004  97.8199 262.2907 15.08824921 22943,6917.926,95.439,540.486,539.097,0.0
53737.0,STARLINK-4646,PAYLOAD,2023-02-02 03:56:53,15.08825783,9.79e-05,53.2183,303.5872,83.898,276.2124,-0.00024776,-4.227e-05,0.0,0 STARLINK-4646,1 53737U 22107AP  23033.16450791 -.00004227  00000-0 -24776-3 0  9997,2 53737  53.2183 303.5872 0000979  83.8980 276.2124 15.08825783 23778,6917.924,95.438,540.466,539.112,0.0
53737.0,STARLINK-4646,PAYLOAD,2023-02-03 00:36:53,15.0885511,0.0001071,53.2179,299.7204,88.7979,271.3136,0.00059142,9.141e-05,0.0,0 STARLINK-4646,1 53737U 22107AP  23034.02562099  .00009141  00000-0  59142-3 0  9991,2 53737  53.2179 299.7204 0001071  88.7979 271.3136 15.08855110 23129,6917.834,95.437,540.44,538.958,0.0
53737.0,STARLINK-4646,PAYLOAD,2023-02-03 02:12:16,15.08860594,0.0001243,53.2172,299.4231,94.3654,265.7481,0.0011496,0.00018065,0.0,0 STARLINK-4646,1 53737U 22107AP  23034.09186325  .00018065  00000-0  11496-2 0  9996,2 53737  53.2172 299.4231 0001243  94.3654 265.7481 15.08860594 23912,6917.817,95.436,540.542,538.823,0.0
53737.0,STARLINK-4646,PAYLOAD,2023-02-03 18:06:08,15.08855628,0.0001827,53.2172,296.4498,94.0732,266.0469,0.00066461,0.0001031,0.0,0 STARLINK-4646,1 53737U 22107AP  23034.75426422  .00010310  00000-0  66461-3 0  9992,2 53737  53.2172 296.4498 0001827  94.0732 266.0469 15.08855628 23233,6917.833,95.437,540.962,538.434,0.0
53737.0,STARLINK-4646,PAYLOAD,2023-02-04 13:10:46,15.08839691,0.0001459,53.2149,292.8811,86.2233,273.8925,0.0012913,0.00020323,0.0,0 STARLINK-4646,1 53737U 22107AP  23035.54914785  .00020323  00000-0  12913-2 0  9991,2 53737  53.2149 292.8811 0001459  86.2233 273.8925 15.08839691 23354,6917.881,95.438,540.756,538.737,0.0
53737.0,STARLINK-4646,PAYLOAD,2023-02-04 21:07:41,15.08844997,0.0001251,53.217,291.3961,89.8904,270.2231,0.00039619,6.024e-05,0.0,0 STARLINK-4646,1 53737U 22107AP  23035.88034498  .00006024  00000-0  39619-3 0  9997,2 53737  53.2170 291.3961 0001251  89.8904 270.2231 15.08844997 24180,6917.865,95.437,540.596,538.865,0.0
53737.0,STARLINK-4646,PAYLOAD,2023-02-05 13:01:33,15.08840806,0.0001201,53.2158,288.4218,96.8224,263.2905,9.768e-05,1.267e-05,0.0,0 STARLINK-4646,1 53737U 22107AP  23036.54274556  .00001267  00000-0  97680-4 0  9999,2 53737  53.2158 288.4218 0001201  96.8224 263.2905 15.08840806 23506,6917.878,95.438,540.574,538.912,0.0
53737.0,STARLINK-4646,PAYLOAD,2023-02-05 22:33:52,15.08832592,0.0001178,53.2158,286.6376,89.6248,270.4879,-3.4938e-05,-8.44e-06,0.0,0 STARLINK-4646,1 53737U 22107AP  23036.94019054 -.00000844  00000-0 -34938-4 0  9992,2 53737  53.2158 286.6376 0001178  89.6248 270.4879 15.08832592 24346,6917.903,95.438,540.583,538.953,0.0
53737.0,STARLINK-4646,PAYLOAD,2023-02-06 00:09:15,15.08833544,0.0001199,53.2161,286.3403,87.2817,272.8313,2.0128e-05,3.2e-07,0.0,0 STARLINK-4646,1 53737U 22107AP  23037.00643196  .00000032  00000-0  20128-4 0  9993,2 53737  53.2161 286.3403 0001199  87.2817 272.8313 15.08833544 23578,6917.9,95.438,540.595,538.936,0.0
53737.0,STARLINK-4646,PAYLOAD,2023-02-06 20:49:16,15.08843197,0.0001113,53.2165,282.4745,102.7947,257.317,0.00015126,2.121e-05,0.0,0 STARLINK-4646,1 53737U 22107AP  23037.86754923  .00002121  00000-0  15126-3 0  9990,2 53737  53.2165 282.4745 0001113 102.7947 257.3170 15.08843197 23700,6917.871,95.437,540.506,538.966,0.0
53737.0,STARLINK-4646,PAYLOAD,2023-02-07 01:35:25,15.08853215,0.0001087,53.2159,281.5824,75.0979,285.0133,0.00040698,6.197e-05,0.0,0 STARLINK-4646,1 53737U 22107AP  23038.06626650  .00006197  00000-0  40698-3 0  9997,2 53737  53.2159 281.5824 0001087  75.0979 285.0133 15.08853215 24517,6917.84,95.437,540.457,538.953,0.0
53737.0,STARLINK-4646,PAYLOAD,2023-02-07 22:15:26,15.08854662,8.52e-05,53.2153,277.7169,73.1939,286.9146,0.00067439,0.00010466,0.0,0 STARLINK-4646,1 53737U 22107AP  23038.92738821  .00010466  00000-0  67439-3 0  9992,2 53737  53.2153 277.7169 0000852  73.1939 286.9146 15.08854662 23862,6917.836,95.437,540.29,539.111,0.0
53737.0,STARLINK-4646,PAYLOAD,2023-02-08 14:09:17,15.08839607,6.5e-05,53.2159,274.7425,108.3056,251.8007,0.00048252,7.4e-05,0.0,0 STARLINK-4646,1 53737U 22107AP  23039.58978957  .00007400  00000-0  48252-3 0  9997,2 53737  53.2159 274.7425 0000650 108.3056 251.8007 15.08839607 23967,6917.882,95.438,540.196,539.297,0.0
53737.0,STARLINK-4646,PAYLOAD,2023-02-08 22:06:13,15.08849381,0.0001226,53.2159,273.2564,108.1313,251.9813,0.00050899,7.824e-05,0.0,0 STARLINK-4646,1 53737U 22107AP  23039.92098794  .00007824  00000-0  50899-3 0  9997,2 53737  53.2159 273.2564 0001226 108.1313 251.9813 15.08849381 24797,6917.852,95.437,540.565,538.869,0.0
53737.0,STARLINK-4646,PAYLOAD,2023-02-09 21:57:01,15.08840777,0.000121,53.2156,268.7937,77.3331,282.7797,0.00072796,0.00011317,0.0,0 STARLINK-4646,1 53737U 22107AP  23040.91459661  .00011317  00000-0  72796-3 0  9994,2 53737  53.2156 268.7937 0001210  77.3331 282.7797 15.08840777 24947,6917.878,95.438,540.58,538.906,0.0
53737.0,STARLINK-4646,PAYLOAD,2023-02-09 23:32:24,15.08845008,0.0001284,53.2162,268.4979,83.2521,276.8617,0.00074587,0.00011604,0.0,0 STARLINK-4646,1 53737U 22107AP  23040.98083602  .00011604  00000-0  74587-3 0  9998,2 53737  53.2162 268.4979 0001284  83.2521 276.8617 15.08845008 24177,6917.865,95.437,540.618,538.842,0.0
53737.0,STARLINK-4646,PAYLOAD,2023-02-10 21:47:48,15.08845534,0.0001331,53.2179,264.3354,80.21,279.9043,0.00033131,4.99e-05,0.0,0 STARLINK-4646,1 53737U 22107AP  23041.90819557  .00004990  00000-0  33131-3 0  9997,2 53737  53.2179 264.3354 0001331  80.2100 279.9043 15.08845534 25093,6917.863,95.437,540.649,538.808,0.0
53737.0,STARLINK-4646,PAYLOAD,2023-02-11 21:38:36,15.08817096,0.0001279,53.2159,259.8727,80.0233,280.0903,1.8418e-05,5e-08,0.0,0 STARLINK-4646,1 53737U 22107AP  23042.90181515  .00000005  00000-0  18418-4 0  9999,2 53737  53.2159 259.8727 0001279  80.0233 280.0903 15.08817096 24460,6917.95,95.439,540.7,538.931,0.0
53737.0,STARLINK-4646,PAYLOAD,2023-02-12 07:10:55,15.08829586,0.0001193,53.2168,258.09,89.937,270.1759,0.00048596,7.452e-05,0.0,0 STARLINK-4646,1 53737U 22107AP  23043.29925572  .00007452  00000-0  48596-3 0  9993,2 53737  53.2168 258.0900 0001193  89.9370 270.1759 15.08829586 24522,6917.912,95.438,540.603,538.952,0.0
53737.0,STARLINK-4646,PAYLOAD,2023-02-13 00:40:11,15.08815562,0.0001951,53.2166,254.8202,81.9684,278.153,0.00041579,6.331e-05,0.0,0 STARLINK-4646,1 53737U 22107AP  23044.02791150  .00006331  00000-0  41579-3 0  9997,2 53737  53.2166 254.8202 0001951  81.9684 278.1530 15.08815562 24637,6917.955,95.439,541.17,538.47,0.0
53737.0,STARLINK-4646,PAYLOAD,2023-02-13 13:23:14,15.08876061,0.0001203,53.2168,252.4391,79.4651,280.6476,0.00090895,0.00014222,0.0,0 STARLINK-4646,1 53737U 22107AP  23044.55780652  .00014222  00000-0  90895-3 0  9993,2 53737  53.2168 252.4391 0001203  79.4651 280.6476 15.08876061 24715,6917.77,95.435,540.467,538.803,0.0
